0 FLOCK 3P 65
1 42028U 17008CJ  21275.68006637  .00004594  00000-0  16823-3 0  9990
2 42028  97.3147 341.8130 0009106  82.9142 277.3133 15.28480470257516
0 FLOCK 3P 50
1 42029U 17008CK  21276.13433178  .00004997  00000-0  18270-3 0  9991
2 42029  97.3153 342.3547 0008786  83.1303 277.0936 15.28493563256904
0 FLOCK 3P 52
1 42030U 17008CL  21275.75291285  .00010401  00000-0  35257-3 0  9992
2 42030  97.3137 342.5863 0007961  79.5984 280.6154 15.30703710257666
0 FLOCK 3P 46
1 42031U 17008CM  21275.73489448  .00005289  00000-0  19303-3 0  9993
2 42031  97.3129 341.6702 0008829  84.6412 275.5835 15.28524148257670
0 FLOCK 3P 47
1 42032U 17008CN  21275.75652914  .00010569  00000-0  37318-3 0  9999
2 42032  97.3129 341.7991 0008595  85.1801 275.0421 15.29365138257501
0 FLOCK 3P 44
1 42033U 17008CP  21276.44784343  .00010673  00000-0  36188-3 0  9999
2 42033  97.3126 343.0912 0007603  79.7734 280.4364 15.30690488256393
0 FLOCK 3P 64
1 42034U 17008CQ  21275.73141108  .00004906  00000-0  17921-3 0  9993
2 42034  97.3127 341.6573 0008871  87.6846 272.5409 15.28530255257667
0 FLOCK 3P 63
1 42035U 17008CR  21276.12471994  .00011115  00000-0  37429-3 0  9992
2 42035  97.3135 343.2167 0008261  82.1345 278.0833 15.30897716255774
0 FLOCK 3P 62
1 42036U 17008CS  21275.70997212  .00011167  00000-0  35717-3 0  9997
2 42036  97.3165 345.2076 0007892  78.5445 281.6683 15.32559833257051
0 FLOCK 3P 38
1 42037U 17008CT  21276.11554775  .00011824  00000-0  38865-3 0  9994
2 42037  97.3152 344.3025 0007764  79.7101 280.5015 15.31667034257815
0 FLOCK 3P 39
1 42038U 17008CU  21275.71492842  .00009917  00000-0  34263-3 0  9994
2 42038  97.3120 341.9991 0008187  86.5125 273.7052 15.30094811257594
0 FLOCK 3P 15
1 42039U 17008CV  21276.14049634  .00011632  00000-0  38242-3 0  9998
2 42039  97.3142 344.1595 0007865  81.3419 278.8714 15.31663850257042
0 FLOCK 3P 13
1 42040U 17008CW  21276.15307930  .00012133  00000-0  39597-3 0  9998
2 42040  97.3153 344.6005 0007773  79.7883 280.4235 15.31892735257055
0 FLOCK 3P 55
1 42041U 17008CX  21276.14593289  .00004943  00000-0  18002-3 0  9990
2 42041  97.3126 342.1602 0008423  90.0939 270.1267 15.28628018257747
0 FLOCK 3P 56
1 42042U 17008CY  21275.75241502  .00011492  00000-0  36416-3 0  9991
2 42042  97.3165 345.8033 0007330  78.8331 281.3735 15.32855168257731
0 FLOCK 3P 81
1 42043U 17008CZ  21275.64786428  .00009894  00000-0  34529-3 0  9997
2 42043  97.3163 342.4320 0008713  73.3824 286.8372 15.29765180256854
0 FLOCK 3P 87
1 42044U 17008DA  21276.43035245  .00007810  00000-0  28231-3 0  9999
2 42044  97.3154 342.5880 0008850  70.7124 289.5073 15.28685526257092
0 FLOCK 3P 29
1 42045U 17008DB  21276.14602013  .00012115  00000-0  39617-3 0  9995
2 42045  97.3133 344.1201 0007714  60.1098 300.0909 15.31827554257052
0 FLOCK 3P 82
1 42046U 17008DC  21276.13652444  .00011947  00000-0  38745-3 0  9991
2 42046  97.3201 345.6932 0007983  61.9136 298.2912 15.32096311257159
0 FLOCK 3P 78
1 42047U 17008DD  21275.76863964  .00010698  00000-0  35097-3 0  9990
2 42047  97.3153 344.0931 0007965  64.2939 295.9124 15.31754372256969
0 FLOCK 3P 74
1 42048U 17008DE  21275.70943219  .00007276  00000-0  26435-3 0  9991
2 42048  97.3176 342.3120 0009216  71.7455 288.4787 15.28539040256829
0 FLOCK 3P 31
1 42049U 17008DF  21275.69352989  .00009147  00000-0  32860-3 0  9996
2 42049  97.3130 341.6202 0008495  69.9599 290.2554 15.28840497256283
0 FLOCK 3P 83
1 42050U 17008DG  21275.72230744  .00010084  00000-0  34799-3 0  9991
2 42050  97.3164 342.5935 0008533  70.9003 289.3161 15.30126119257588
0 FLOCK 3P 72
1 42051U 17008DH  21275.69912349  .00010924  00000-0  35856-3 0  9994
2 42051  97.3190 344.5377 0007908  66.6186 293.5887 15.31734304255288
0 PSLV R/B
1 42052U 17008DJ  21276.28407267  .00002317  00000-0  82316-4 0  9990
2 42052  97.3243 350.5997 0011015 214.6863 145.3661 15.29979569258293
0 TK-1
1 42061U 17012A   21275.78976493  .00019113  00000-0  25049-3 0  9992
2 42061  97.1591 273.7460 0035584  70.1856 290.3231 15.57832609260978
0 SENTINEL 2B
1 42063U 17013A   21276.44527133  .00000026  00000-0  26627-4 0  9999
2 42063  98.5709 349.8730 0000867  89.6239 270.5044 14.30814838239014
0 ECHOSTAR 23
1 42070U 17014A   21275.47394049 -.00000273  00000-0  00000-0 0  9996
2 42070   0.0249 181.9620 0001947   2.2552 289.9125  1.00267495 16708
0 FALCON 9 R/B
1 42071U 17014B   21276.42645639  .01026738 -73933-6  43809-3 0  9990
2 42071  22.3487  91.1146 4241690 295.7249  26.8273  7.22338381 55687
0 WGS 9 (USA 275)
1 42075U 17016A   21276.07729536 -.00000100  00000-0  00000+0 0  9991
2 42075   0.0206 171.6200 0000183  60.4690 155.7019  1.00269149 16706
0 DELTA 1 DEB
1 42079U 68114F   21276.01539053  .00000010  00000-0  41258-3 0  9990
2 42079 101.9207 293.6734 0316109 325.9567  60.2008 12.25819839801334
0 DELTA 1 DEB
1 42080U 68114G   21275.71851363 -.00000028  00000-0  11006-3 0  9997
2 42080 101.5953 247.5904 0067397 202.4677 332.9978 12.39261731355730
0 DELTA 1 DEB
1 42081U 68114H   21275.32002212  .00000003  00000-0  36325-3 0  9999
2 42081 101.5817 301.3328 0115698 310.2005  48.8975 12.31529940291156
0 DELTA 1 DEB
1 42082U 68114J   21275.62017374  .00000029  00000-0  52115-3 0  9991
2 42082 101.7534 233.3868 0087267 300.8771 235.1264 12.42378157356959
0 DELTA 1 DEB
1 42083U 68114K   21274.85158157 -.00000148  00000-0 -26484-3 0  9995
2 42083 101.8602 129.1370 0281176 117.1779 259.3172 13.00991703824554
0 DELTA 1 DEB
1 42085U 68114M   21275.44772288 -.00000115  00000-0 -29092-3 0  9992
2 42085 100.9936 350.8681 0110098  30.0697  33.8405 12.83328532368595
0 DELTA 1 DEB
1 42087U 68114P   21274.93144780 -.00000179  00000-0 -10456-2 0  9990
2 42087 101.4301 322.1949 0194785 350.3821   9.3537 12.34078464353961
0 DELTA 1 DEB
1 42088U 68114Q   21269.15961326 -.00000027  00000-0  10337-3 0  9992
2 42088 101.4602 245.1582 0021324   9.0223 351.1227 12.48767637758151
0 DELTA 1 DEB
1 42089U 68114R   21270.68260239  .00000021  00000-0  53285-3 0  9990
2 42089 102.0497 225.3922 0156153 264.8041  93.5181 12.30983477310880
0 DELTA 1 DEB
1 42091U 68114T   21275.34006360  .00000004  00000-0  31896-3 0  9999
2 42091 101.4712 307.8554 0036261  24.2905 346.4094 12.46904628357867
0 DELTA 1 DEB
1 42092U 68114U   21275.57003981  .00000303  00000-0  20344-2 0  9998
2 42092 101.6430  12.7633 0032074 286.6003  73.1552 12.58813386361566
0 DELTA 1 DEB
1 42093U 68114V   21271.99678799  .00003887  00000-0  14771-1 0  9992
2 42093 102.5332 188.6384 0144641  19.8145 340.8485 12.88155206822598
0 DELTA 1 DEB
1 42094U 68114W   21276.07495186 -.00000003  00000-0  28679-3 0  9996
2 42094 101.5799 227.4035 0203917 347.3748  12.2254 12.36235463767117
0 COSMOS 1275 DEB
1 42095U 81053PF  21275.68814160  .00000704  00000-0  70750-3 0  9991
2 42095  82.7556  47.0392 0135456 305.6522  53.2080 13.72432439393390
0 COSMOS 1275 DEB
1 42096U 81053PG  21275.04454872  .00001388  00000-0  70527-3 0  9993
2 42096  82.7299 196.0601 0051538 193.5628 166.4168 14.14635840401866
0 COSMOS 1275 DEB
1 42097U 81053PH  21272.40039054 -.00000228  00000-0 -13637-3 0  9995
2 42097  82.8190 312.3126 0065021  62.7900 297.9881 14.10028029947728
0 COSMOS 1275 DEB
1 42098U 81053PJ  21276.36155471  .00000317  00000-0  35747-3 0  9990
2 42098  83.1606  44.7402 0142741  10.9459 349.4740 13.63592590904408
0 COSMOS 1275 DEB
1 42099U 81053PK  21275.52028795  .00001381  00000-0  70327-3 0  9991
2 42099  82.8617 345.5982 0037687 158.3381 201.9402 14.14800291292151
0 COSMOS 1275 DEB
1 42100U 81053PL  21274.51882897  .00001133  00000-0  50764-3 0  9991
2 42100  82.8697 204.3788 0029534 334.6479  25.3252 14.21579481407079
0 COSMOS 1275 DEB
1 42101U 81053PM  21274.78298107  .00001441  00000-0  49814-3 0  9992
2 42101  82.7805 293.3842 0006781  93.6155 266.5810 14.35212467872260
0 COSMOS 1275 DEB
1 42102U 81053PN  21275.37664797  .00000701  00000-0  61625-3 0  9993
2 42102  83.0108 256.6397 0076605 109.9326 251.0108 13.82671494396564
0 COSMOS 1275 DEB
1 42103U 81053PP  21275.42651370  .00001004  00000-0  60945-3 0  9994
2 42103  83.1815 168.2629 0027802 114.7476 245.6596 14.05204242402716
0 COSMOS 1275 DEB
1 42104U 81053PQ  21275.75912696  .00000188  00000-0  16487-3 0  9996
2 42104  82.8741 289.9234 0042544 196.0997 163.8813 13.80202629396898
0 COSMOS 1275 DEB
1 42106U 81053PS  21276.32190286  .00002995  00000-0  72689-3 0  9999
2 42106  83.0738 228.8384 0025955 210.0578 302.2399 14.52449911 10041
0 COSMOS 1275 DEB
1 42107U 81053PT  21275.62268189  .00000671  00000-0  43479-3 0  9994
2 42107  82.8124  39.7584 0050804  15.6464 344.6262 14.00782090401496
0 COSMOS 1275 DEB
1 42109U 81053PV  21273.04851935  .00000048  00000-0  32864-4 0  9992
2 42109  82.9528  19.2711 0028129 236.2614 245.6205 13.77921565395040
0 COSMOS 1275 DEB
1 42110U 81053PW  21275.90197947  .00001052  00000-0  45760-3 0  9991
2 42110  82.9197 344.5431 0025309 122.0355 238.3291 14.23097956899300
0 COSMOS 1275 DEB
1 42111U 81053PX  21276.31681783  .00001171  00000-0  58541-3 0  9997
2 42111  82.8120 236.0162 0052373 111.4224 249.2553 14.15317348405496
0 COSMOS 1275 DEB
1 42112U 81053PY  21274.36152929  .00001359  00000-0  56232-3 0  9999
2 42112  82.8548 148.0915 0019989 307.0016  52.9338 14.25949245395651
0 COSMOS 1275 DEB
1 42113U 81053PZ  21276.24172719  .00000357  00000-0  34579-3 0  9995
2 42113  82.7473  95.3443 0200897  30.8415  90.3429 13.68686768392616
0 COSMOS 1275 DEB
1 42114U 81053QA  21275.40743684  .00001391  00000-0  66550-3 0  9991
2 42114  82.8213 262.6347 0050873 108.0448  44.3792 14.17797429405960
0 COSMOS 1275 DEB
1 42115U 81053QB  21276.17589244  .00000757  00000-0  49710-3 0  9991
2 42115  82.6633 188.9985 0058383 243.9162 115.5992 14.00012002903515
0 COSMOS 1275 DEB
1 42116U 81053QC  21268.31026427  .00001027  00000-0  43393-3 0  9990
2 42116  83.1334 283.6133 0022801  65.9317 307.1344 14.24597503658526
0 COSMOS 1275 DEB
1 42117U 81053QD  21276.39336847  .00000293  00000-0  21369-3 0  9991
2 42117  82.9845 319.8578 0017514 241.7996 118.1402 13.92977169399507
